#aV2023  4  7  0  0  0.00000000     288 DD+AD WGS84 FIT  NGA
## 2256 432000.00000000   300.00000000 60041 0.0000000000000
+   32     1  2  3  4  5  6  7  8  9 10 11 12 13 14 15 16 17
+         18 19 20 21 22 23 24 25 26 27 28 29 30 31 32  0  0
+          0  0  0  0  0  0  0  0  0  0  0  0  0  0  0  0  0
+          0  0  0  0  0  0  0  0  0  0  0  0  0  0  0  0  0
+          0  0  0  0  0  0  0  0  0  0  0  0  0  0  0  0  0
++         2  2  2  2  2  2  2  2  2  2  2  2  2  2  2  2  2
++         2  2  2  2  2  2  2  2  2  2  2  2  2  2  2  0  0
++         0  0  0  0  0  0  0  0  0  0  0  0  0  0  0  0  0
++         0  0  0  0  0  0  0  0  0  0  0  0  0  0  0  0  0
++         0  0  0  0  0  0  0  0  0  0  0  0  0  0  0  0  0
%c cc cc ccc ccc cccc cccc cccc cccc ccccc ccccc ccccc ccccc
%c cc cc ccc ccc cccc cccc cccc cccc ccccc ccccc ccccc ccccc
%f  0.0000000  0.000000000  0.00000000000  0.000000000000000
%f  0.0000000  0.000000000  0.00000000000  0.000000000000000
%i    0    0    0    0      0      0      0      0         0
%i    0    0    0    0      0      0      0      0         0
/*      NGA, ST. LOUIS,MO.                                  
/*   EPHEMERIS COMPUTED FROM 2 DAYS OF DATA                 
/*   EPOCHA v8 SMOOTHER                                     
/*   G2139 IERS2010 SATIGS SATAPC                           
*  2023  4  7  5 20  0.00000000
P  1 -13432.620655  17256.573668  14487.920318    195.512458                    
V  1   2291.271297 -19001.065915  24558.635142     -0.034302                    
P  2  10229.146674 -21737.137215 -11167.726991   -608.403114                    
V  2    456.095808  15000.981367 -27230.424908      0.035993                    
P  3 -21691.600577  13054.343508  -7952.052400   -334.735084                    
V  3 -10115.866654   1134.146322  30039.763291      0.081280                    
P  4 -12056.961899   9420.675454 -21705.020952     10.862118                    
V  4 -19986.545346 -18998.934898   2744.880573      0.090849                    
P  5  25112.795639  -3812.784587  -8139.126810   -122.442352                    
V  5  -8502.981987   5883.754861 -29494.562841     -0.014732                    
P  6   6465.182551  20212.313490 -15844.837746    585.845885                    
V  6  -5469.860970  19516.184222  22668.099987      0.016640                    
P  7  -6324.373176  25430.022017  -1699.006232    206.874395                    
V  7  -2970.304591  -3374.397738 -31758.767604     -0.083183                    
P  8 -20457.823942  -1459.046899  17019.096700   -116.577551                    
V  8 -15615.199916 -14999.072589 -19587.596770     -0.017831                    
P  9  -1366.564846  17376.361697 -20099.277997   -185.183741                    
V  9 -20210.298955 -15420.153139 -12042.066940      0.078203                    
P 10  -6196.338665 -13636.203934  22121.560655    -31.769789                    
V 10  26104.918649  -8952.402230   1507.870309     -0.016267                    
P 11  13757.149110   6798.561044 -21673.300065   -154.350871                    
V 11  -6999.364054  26617.955802   3872.002695     -0.123476                    
P 12  23591.242839 -10607.593180  -6092.101258   -360.883931                    
V 12   7806.687523    614.447711  30663.144330     -0.046418                    
P 13  20733.011747  10130.393368  13152.903285    502.054488                    
V 13   9603.751285  14036.017065 -25412.185194      0.056322                    
P 14   2666.979080  15316.834301  21534.191393     17.686042                    
V 14 -26267.671762   7724.041084  -2379.636096      0.112139                    
P 15  20426.838209  -1374.739965  16606.060635     28.395813                    
V 15  17109.676925  13922.769485 -19101.892488      0.033959                    
P 16 -24755.027521  -1361.926531 -10437.129668   -510.577812                    
V 16  11823.476928  -4891.329477 -27788.418606      0.025983                    
P 17  10597.457309  21579.485950  11603.739655    709.374762                    
V 17 -11411.498176  -8505.988251  27350.948907      0.018235                    
P 18   4541.033514 -26039.335183   1585.192927   -213.214739                    
V 18   2892.699069  -1437.676118 -32057.557193     -0.168079                    
P 19  17228.669024  20330.960488   1665.817757    300.316554                    
V 19  -3205.717896   -269.991883  31760.164547      0.050883                    
P 20  20642.404425   2243.307888 -16414.691602    440.463679                    
V 20 -17430.946690  11964.971579 -20437.700936     -0.021578                    
P 21 -15246.557862   8250.422528  20444.096353    154.283031                    
V 21   1383.945739 -24958.242322  12261.170457     -0.000893                    
P 22 -18747.922582 -18918.638338   -443.454113    459.599324                    
V 22   1137.667949  -2626.104587  31676.670342      0.069423                    
P 23   7161.058043 -16720.680477  19306.130387     15.206042                    
V 23  23396.172386  -7440.166176 -15268.864197      0.024494                    
P 24  14277.127538 -13615.955489  17231.997883   -142.103054                    
V 24    -12.767039  22950.475886  18200.254488     -0.147874                    
P 25  15330.734593 -16294.957862 -14419.070089    433.700374                    
V 25  17665.528293  -3739.833456  23790.287931      0.029034                    
P 26 -16561.989975  -8459.656826 -19196.350464    241.863594                    
V 26  21705.199441 -10607.551156 -13795.888629     -0.001702                    
P 27 -22421.344371 -11693.727846   8541.690789     64.358903                    
V 27  -6963.355956  -8848.921372 -29131.469062     -0.081599                    
P 28  -6523.030517 -21531.438391 -14148.817629     60.424793                    
V 28   4923.806887 -17353.548700  24178.651662      0.072162                    
P 29   6110.568734 -14459.699247 -21462.248171   -594.416642                    
V 29  19379.692313  18948.682087  -7346.660915     -0.016760                    
P 30   2003.429100  24638.638333   9453.672164   -523.554409                    
V 30  -5776.721237  11044.009183 -28130.810116      0.017704                    
P 31 -10327.976502 -15471.472016 -18967.918114   -213.401784                    
V 31   6768.640042 -22968.817985  15624.639432     -0.008929                    
P 32 -14275.456279 -20673.396543   9099.540925   -444.803672                    
V 32  10107.490503   5499.454029  28715.322163     -0.102919                    
EOF
